QZS-6 (MICHIBIKI-6)     
1 62876U 25023A   26188.44813013 -.00000218  00000+0  00000+0 0  9990
2 62876   0.0320 296.2841 0001905 188.1669  52.8075  1.00269614  5159
ZHONGXING-10R           
1 63075U 25036A   26188.52342817 -.00000336  00000+0  00000+0 0  9995
2 63075   0.0476 229.3217 0004160 282.4650  72.6372  1.00267920  5160
TJS-15                  
1 63157U 25045A   26183.75929199 -.00000254  00000+0  00000+0 0  9999
2 63157   0.3058  85.5733 0003804 301.9252 260.9777  1.00274962  4911
TIANLIAN 2-04           
1 63361U 25062A   26187.75384052 -.00000118  00000+0  00000+0 0  9991
2 63361   4.3272 274.1537 0031318   9.5730 352.4337  1.00270403  4804
TJS-16                  
1 63397U 25064A   26183.69857794 -.00000095  00000+0  00000+0 0  9993
2 63397   1.1359  81.3849 0002939 299.1841 312.2806  1.00272015  4542
TJS-17                  
1 63524U 25073A   26183.77560743 -.00000059  00000+0  00000+0 0  9999
2 63524   1.1020  82.5843 0001564 315.8143 326.1705  1.00271016  4441
TIANLIAN 2-05           
1 63662U 25084A   26188.07777716  .00000141  00000+0  00000+0 0  9993
2 63662   4.4036 279.6017 0002946 152.5558 261.2983  1.00269712  4582
TJS-19                  
1 63924U 25097A   26183.75314255 -.00000263  00000+0  00000+0 0  9999
2 63924   3.2611 317.6772 0003438 238.0724 137.4555  1.00271699  4308
CHINASAT 3B             
1 64062U 25106A   26187.82176308 -.00000030  00000+0  00000+0 0  9993
2 64062   0.0390 182.5667 0003890 316.7126 248.6535  1.00271009  4257
SXM-10                  
1 64290U 25122A   26187.90820355 -.00000002  00000+0  00000+0 0  9990
2 64290   0.0149  29.5981 0001828 335.7347 130.3538  1.00272230  3881
COSMOS 2589             
1 64467U 25131A   26183.75492887 -.00000280  00000+0  00000+0 0  9998
2 64467   0.0398 102.1054 0000936 108.8979  79.5624  1.00272301  3712
CHINASAT 9C             
1 64470U 25132A   26188.16326131 -.00000232  00000+0  00000+0 0  9998
2 64470   0.0415 234.1816 0003067 234.9939 326.9513  1.00271958  4346
MTG-S1                  
1 64723U 25143A   26188.14497455  .00000007  00000+0  00000+0 0  9996
2 64723   0.5891 343.1246 0003251 262.1294  91.6064  1.00272511  3612
DROR 1                  
1 64784U 25148A   26188.35814049 -.00000019  00000+0  00000+0 0  9997
2 64784   0.0143  54.4153 0002145 344.8099  11.0293  1.00272321  3490
SHIYAN-29               
1 65486U 25196A   26187.76063352 -.00000270  00000+0  00000+0 0  9996
2 65486  28.8417  18.2886 0013562 176.0849  99.3772  1.00279552  3074
NUSANTARA LIMA (NUSANT*)
1 65588U 25205A   26188.30998257 -.00000342  00000+0  00000+0 0  9992
2 65588   0.0090 128.3106 0000427  28.5508 352.8656  1.00270222  2929
TJS-20                  
1 66142U 25238A   26188.44258344  .00000042  00000+0  00000+0 0  9992
2 66142   5.4264 299.4640 0004532 176.2753  31.3965  1.00273071  2539
CMS-03 (GSAT-7R)        
1 66311U 25249B   26188.51615105 -.00000061  00000+0  00000+0 0  9994
2 66311   0.0469 256.0187 0001710 180.4741 108.7797  1.00271433  2553
VIASAT-3 F2             
1 66454U 25261A   26187.91557027 -.00000219  00000+0  00000+0 0  9992
2 66454   0.0344 192.7662 0000796  19.0684 323.6931  1.00272669  2991
SHIJIAN-28 (SJ-28)      
1 66549U 25277A   26188.52464152 -.00000342  00000+0  00000+0 0  9995
2 66549   4.4884 271.8078 0000988  32.5572 286.8621  1.00271575  2353
TJS-22                  
1 66990U 25290A   26187.82282545  .00000008  00000+0  00000+0 0  9994
2 66990   1.4813 286.8315 0002287 318.7622  41.9413  1.00274286  2228
TJS-23                  
1 67226U 25306A   26187.54878734  .00000033  00000+0  00000+0 0  9993
2 67226   5.5442 297.3876 0004795 188.4570 171.7240  1.00273372  2082
FENGYUN 4C              
1 67246U 25312A   26187.67234388 -.00000308  00000+0  00000+0 0  9993
2 67246   0.0424 191.0881 0000522   6.4792 102.1291  1.00271892  1975
SHIJIAN-29A (SJ-29A)    
1 67302U 25315A   26187.62337550 -.00000053  00000+0  00000+0 0  9996
2 67302   3.4441  94.6539 0003409  29.6952  97.7941  1.00270864  1816
SHIJIAN-29B (SJ-29B)    
1 67403U 25315C   26187.62328720 -.00000054  00000+0  00000+0 0  9998
2 67403   3.4431  94.6463 0004759  47.3527  80.1684  1.00272227  1889
ELEKTRO-L 5             
1 67756U 26028A   26187.99714759 -.00000083  00000+0  00000+0 0  9994
2 67756   0.2185 320.5189 0001907 178.6683 220.8296  1.00271988  1458
JAM-E JAM 1             
1 67757U 26028B   26188.22305146  .00000171  00000+0  00000+0 0  9995
2 67757   0.2217 308.9814 0001463 329.4184 121.1058  1.00270251  1326
ECHOSTAR 25             
1 68126U 26045A   26188.34359557 -.00000041  00000+0  00000+0 0  9990
2 68126   0.0189  30.9957 0001553  77.1849 190.8296  1.00270887  1195
TJS-24                  
1 69235U 26116A   26188.45947266 -.00000216  00000+0  00000+0 0  9997
2 69235   0.0578  98.4384 0000141  88.5541 354.1474  1.00272380   438
