OBJECT_NAME,OBJECT_ID,EPOCH,MEAN_MOTION,ECCENTRICITY,INCLINATION,RA_OF_ASC_NODE,ARG_OF_PERICENTER,MEAN_ANOMALY,EPHEMERIS_TYPE,CLASSIFICATION_TYPE,NORAD_CAT_ID,ELEMENT_SET_NO,REV_AT_EPOCH,BSTAR,MEAN_MOTION_DOT,MEAN_MOTION_DDOT
QZS-6 (MICHIBIKI-6),2025-023A,2026-07-07T10:45:18.443232,1.00269614,.0001905,0.0320,296.2841,188.1669,52.8075,0,U,62876,999,515,0,-.218E-5,0
ZHONGXING-10R,2025-036A,2026-07-07T12:33:44.193888,1.00267920,.000416,0.0476,229.3217,282.4650,72.6372,0,U,63075,999,516,0,-.336E-5,0
TJS-15,2025-045A,2026-07-02T18:13:22.827936,1.00274962,.0003804,0.3058,85.5733,301.9252,260.9777,0,U,63157,999,491,0,-.254E-5,0
TIANLIAN 2-04,2025-062A,2026-07-06T18:05:31.820928,1.00270403,.0031318,4.3272,274.1537,9.5730,352.4337,0,U,63361,999,480,0,-.118E-5,0
TJS-16,2025-064A,2026-07-02T16:45:57.134016,1.00272015,.0002939,1.1359,81.3849,299.1841,312.2806,0,U,63397,999,454,0,-.95E-6,0
TJS-17,2025-073A,2026-07-02T18:36:52.481952,1.00271016,.0001564,1.1020,82.5843,315.8143,326.1705,0,U,63524,999,444,0,-.59E-6,0
TIANLIAN 2-05,2025-084A,2026-07-07T01:51:59.946624,1.00269712,.0002946,4.4036,279.6017,152.5558,261.2983,0,U,63662,999,458,0,.141E-5,0
TJS-19,2025-097A,2026-07-02T18:04:31.516320,1.00271699,.0003438,3.2611,317.6772,238.0724,137.4555,0,U,63924,999,430,0,-.263E-5,0
CHINASAT 3B,2025-106A,2026-07-06T19:43:20.330112,1.00271009,.000389,0.0390,182.5667,316.7126,248.6535,0,U,64062,999,425,0,-.3E-6,0
SXM-10,2025-122A,2026-07-06T21:47:48.786720,1.00272230,.0001828,0.0149,29.5981,335.7347,130.3538,0,U,64290,999,388,0,-.2E-7,0
COSMOS 2589,2025-131A,2026-07-02T18:07:05.854368,1.00272301,.0000936,0.0398,102.1054,108.8979,79.5624,0,U,64467,999,371,0,-.28E-5,0
CHINASAT 9C,2025-132A,2026-07-07T03:55:05.777184,1.00271958,.0003067,0.0415,234.1816,234.9939,326.9513,0,U,64470,999,434,0,-.232E-5,0
MTG-S1,2025-143A,2026-07-07T03:28:45.801120,1.00272511,.0003251,0.5891,343.1246,262.1294,91.6064,0,U,64723,999,361,0,.7E-7,0
DROR 1,2025-148A,2026-07-07T08:35:43.338336,1.00272321,.0002145,0.0143,54.4153,344.8099,11.0293,0,U,64784,999,349,0,-.19E-6,0
SHIYAN-29,2025-196A,2026-07-06T18:15:18.736128,1.00279552,.0013562,28.8417,18.2886,176.0849,99.3772,0,U,65486,999,307,0,-.27E-5,0
NUSANTARA LIMA (NUSANTARA 5),2025-205A,2026-07-07T07:26:22.494048,1.00270222,.0000427,0.0090,128.3106,28.5508,352.8656,0,U,65588,999,292,0,-.342E-5,0
TJS-20,2025-238A,2026-07-07T10:37:19.209216,1.00273071,.0004532,5.4264,299.4640,176.2753,31.3965,0,U,66142,999,253,0,.42E-6,0
CMS-03 (GSAT-7R),2025-249B,2026-07-07T12:23:15.450720,1.00271433,.000171,0.0469,256.0187,180.4741,108.7797,0,U,66311,999,255,0,-.61E-6,0
VIASAT-3 F2,2025-261A,2026-07-06T21:58:25.271328,1.00272669,.0000796,0.0344,192.7662,19.0684,323.6931,0,U,66454,999,299,0,-.219E-5,0
SHIJIAN-28 (SJ-28),2025-277A,2026-07-07T12:35:29.027328,1.00271575,.0000988,4.4884,271.8078,32.5572,286.8621,0,U,66549,999,235,0,-.342E-5,0
TJS-22,2025-290A,2026-07-06T19:44:52.118880,1.00274286,.0002287,1.4813,286.8315,318.7622,41.9413,0,U,66990,999,222,0,.8E-7,0
TJS-23,2025-306A,2026-07-06T13:10:15.226176,1.00273372,.0004795,5.5442,297.3876,188.4570,171.7240,0,U,67226,999,208,0,.33E-6,0
FENGYUN 4C,2025-312A,2026-07-06T16:08:10.511232,1.00271892,.0000522,0.0424,191.0881,6.4792,102.1291,0,U,67246,999,197,0,-.308E-5,0
SHIJIAN-29A (SJ-29A),2025-315A,2026-07-06T14:57:39.643200,1.00270864,.00034092,3.4441,94.6539,29.6952,97.7941,0,U,67302,999,181,0,-.53E-6,0
SHIJIAN-29B (SJ-29B),2025-315C,2026-07-06T14:57:32.014080,1.00272227,.00047599,3.4431,94.6463,47.3527,80.1684,0,U,67403,999,188,0,-.54E-6,0
ELEKTRO-L 5,2026-028A,2026-07-06T23:55:53.551776,1.00271988,.0001907,0.2185,320.5189,178.6683,220.8296,0,U,67756,999,145,0,-.83E-6,0
JAM-E JAM 1,2026-028B,2026-07-07T05:21:11.646144,1.00270251,.0001463,0.2217,308.9814,329.4184,121.1058,0,U,67757,999,132,0,.171E-5,0
ECHOSTAR 25,2026-045A,2026-07-07T08:14:46.657248,1.00270887,.0001553,0.0189,30.9957,77.1849,190.8296,0,U,68126,999,119,0,-.41E-6,0
TJS-24,2026-116A,2026-07-07T11:01:38.437824,1.00272380,.0000141,0.0578,98.4384,88.5541,354.1474,0,U,69235,999,43,0,-.216E-5,0
